GSAT0101 (GALILEO-PFM)  
1 37846U 11060A   25060.06079426 -.00000084  00000+0  00000+0 0  9994
2 37846  57.1140 354.5841 0004142 343.0067  16.9840  1.70475553 83187
GSAT0102 (GALILEO-FM2)  
1 37847U 11060B   25062.52667051 -.00000092  00000+0  00000+0 0  9994
2 37847  57.1119 354.5177 0005351 337.7414 140.9033  1.70475674 83103
GSAT0103 (GALILEO-FM3)  
1 38857U 12055A   25068.89931063  .00000009  00000+0  00000+0 0  9991
2 38857  55.5332 114.2984 0005523 276.0723  83.9411  1.70473496 77097
GSAT0201 (GALILEO 5)    
1 40128U 14050A   25067.73181928 -.00000023  00000+0  00000+0 0  9998
2 40128  49.3795 292.3929 1621932 161.4093 205.2969  1.85519735 69684
GSAT0202 (GALILEO 6)    
1 40129U 14050B   25069.06706973 -.00000024  00000+0  00000+0 0  9991
2 40129  49.3943 291.4191 1621784 162.2419 204.1770  1.85520424 71876
GSAT0203 (GALILEO 7)    
1 40544U 15017A   25067.46523640 -.00000111  00000+0  00000+0 0  9993
2 40544  56.9045 354.2817 0003568 302.6179  57.3498  1.70475275 61920
GSAT0204 (GALILEO 8)    
1 40545U 15017B   25061.26755611 -.00000087  00000+0  00000+0 0  9993
2 40545  56.9122 354.4670 0004226 281.5481  78.4114  1.70475279 24202
GSAT0205 (GALILEO 9)    
1 40889U 15045A   25069.24815466  .00000015  00000+0  00000+0 0  9996
2 40889  55.1072 234.4168 0005894  48.5783 311.4289  1.70473683 59102
GSAT0206 (GALILEO 10)   
1 40890U 15045B   25066.53586933  .00000039  00000+0  00000+0 0  9997
2 40890  55.1073 234.4869 0003843  51.1409 308.8604  1.70473594 59089
GSAT0209 (GALILEO 12)   
1 41174U 15079A   25067.87782287  .00000002  00000+0  00000+0 0  9998
2 41174  55.5525 114.0382 0004622 313.5685  46.4648  1.70474678 56849
GSAT0208 (GALILEO 11)   
1 41175U 15079B   25067.51117690  .00000001  00000+0  00000+0 0  9999
2 41175  55.5510 114.0456 0003889 311.9280  48.1091  1.70474563 57253
GSAT0211 (GALILEO 14)   
1 41549U 16030A   25068.80794390  .00000019  00000+0  00000+0 0  9992
2 41549  55.2557 234.4640 0003348  25.4886 334.4871  1.70473727 54735
GSAT0210 (GALILEO 13)   
1 41550U 16030B   25066.71941168  .00000038  00000+0  00000+0 0  9990
2 41550  55.2554 234.5197 0001245 173.7019 186.2666  1.70473831 54710
GSAT0207 (GALILEO 15)   
1 41859U 16069A   25068.75786744  .00000007  00000+0  00000+0 0  9993
2 41859  55.2201 113.9505 0005210 299.5451  60.4785  1.70474552 51484
GSAT0212 (GALILEO 16)   
1 41860U 16069B   25069.19843394  .00000010  00000+0  00000+0 0  9993
2 41860  55.2179 113.9342 0003519 322.2206  37.8325  1.70474779 51749
GSAT0213 (GALILEO 17)   
1 41861U 16069C   25067.80681657  .00000001  00000+0  00000+0 0  9992
2 41861  55.2194 113.9801 0005411 283.6895  76.3215  1.70475010 51581
GSAT0214 (GALILEO 18)   
1 41862U 16069D   25067.95233485  .00000002  00000+0  00000+0 0  9992
2 41862  55.2184 113.9691 0004315 284.9925  75.0315  1.70474869 51711
GSAT0215 (GALILEO 19)   
1 43055U 17079A   25067.85585931  .00000028  00000+0  00000+0 0  9993
2 43055  55.2338 234.3084 0000571  37.2177 322.7497  1.70474370 45050
GSAT0216 (GALILEO 20)   
1 43056U 17079B   25068.73392408  .00000020  00000+0  00000+0 0  9999
2 43056  55.2337 234.2843 0001485 316.4530  43.4946  1.70474548 45088
GSAT0217 (GALILEO 21)   
1 43057U 17079C   25062.50210937  .00000048  00000+0  00000+0 0  9995
2 43057  55.2333 234.4543 0001934 358.5382   1.4211  1.70474342 44962
GSAT0218 (GALILEO 22)   
1 43058U 17079D   25068.58797366  .00000021  00000+0  00000+0 0  9997
2 43058  55.2313 234.2839 0001735 303.6859  56.2576  1.70474420 45067
GSAT0221 (GALILEO 25)   
1 43564U 18060A   25062.03718543 -.00000090  00000+0  00000+0 0  9991
2 43564  57.2862 354.4951 0005577 303.4422  56.5121  1.70475213 41147
GSAT0222 (GALILEO 26)   
1 43565U 18060B   25065.18902751 -.00000103  00000+0  00000+0 0  9992
2 43565  57.2891 354.4126 0003955 284.9193  75.0424  1.70474985 41237
GSAT0219 (GALILEO 23)   
1 43566U 18060C   25060.13123374 -.00000084  00000+0  00000+0 0  9997
2 43566  57.2893 354.5507 0005051 310.5119  49.4489  1.70475233 41128
GSAT0220 (GALILEO 24)   
1 43567U 18060D   25062.11176882 -.00000090  00000+0  00000+0 0  9997
2 43567  57.2888 354.4975 0005572 300.6899  59.2630  1.70475060 41141
GSAT0223 (GALILEO 27)   
1 49809U 21116A   25067.39466414 -.00000111  00000+0  00000+0 0  9990
2 49809  57.2776 354.2471 0002103 279.8168 172.9328  1.70475345 20245
GSAT0224 (GALILEO 28)   
1 49810U 21116B   25065.47774226 -.00000104  00000+0  00000+0 0  9994
2 49810  57.2788 354.2974 0001886 295.2065 173.6316  1.70475249 20230
GSAT0225 (GALILEO 29)   
1 59598U 24079A   25062.96482492  .00000011  00000+0  00000+0 0  9997
2 59598  54.8337 114.2343 0003099 245.2285 113.0483  1.70474840  5296
GSAT0227 (GALILEO 30)   
1 59600U 24079C   25069.01687771  .00000008  00000+0  00000+0 0  9997
2 59600  54.8325 114.0647 0000463 178.4710 181.6057  1.70474946  5457
GSAT0232 (GALILEO 32)   
1 61182U 24167A   25069.28586469  .00000015  00000+0  00000+0 0  9992
2 61182  55.3422 234.0384 0002441 181.9760 178.3804  1.70473991  2978
GSAT0226 (GALILEO 31)   
1 61183U 24167B   25068.51957516  .00000022  00000+0  00000+0 0  9991
2 61183  55.3414 234.0651 0002028 122.8730 239.7468  1.70474025  2932
